From: horizons@ssd.jpl.nasa.gov (Horizons Ephemeris System)
Subject: [Horizons] SMALL BODY #C(500@10)_T(177P/Barnard) (1/1)
Date: March 1, 2021 at 10:57:37 AM PST

Automated mail xmit by MAIL_REQUEST, PID= 10706 Mon Mar  1 10:57:37 2021
++++++++++++++++++++++++++++++++ (part 1 of 1)  +++++++++++++++++++++++++++++++


*******************************************************************************
Ephemeris / MAIL_REQUEST Mon Mar  1 10:57:37 2021 Pasadena, USA  / Horizons
*******************************************************************************
Target body name: 177P/Barnard                    {source: JPL#28}
Center body name: Sun (10)                        {source: DE431}
Center-site name: BODY CENTER
*******************************************************************************
Start time      : A.D. 2003-Aug-02 06:28:48.0000 TDB
Stop  time      : A.D. 2009-Aug-02 06:28:48.0000 TDB
Step-size       : 20160 minutes
*******************************************************************************
Center geodetic : 0.00000000,0.00000000,0.0000000 {E-lon(deg),Lat(deg),Alt(km)}
Center cylindric: 0.00000000,0.00000000,0.0000000 {E-lon(deg),Dxy(km),Dz(km)}
Center radii    : 696000.0 x 696000.0 x 696000.0 k{Equator, meridian, pole}    
Small perturbers: Yes                             {source: SB431-N16}
Output units    : AU-D
Output type     : GEOMETRIC cartesian states
Output format   : 3 (position, velocity, LT, range, range-rate)
Reference frame : Ecliptic of J2000.0
*******************************************************************************
Initial IAU76/J2000 heliocentric ecliptic osculating elements (au, days, deg.):
 EPOCH=  2453849.5 ! 2006-Apr-24.0000000 (TDB)    RMSW= n.a.                  
  EC= .9544420406541484   QR= 1.107271122647026   TP= 2453976.183241813       
  OM= 272.0677211295935   W= 60.45355087098523    IN= 31.21645855802596       
 Equivalent ICRF heliocentric equatorial cartesian coordinates (au, au/d):
  X=-8.420413527716972E-01  Y=-1.536265167322076E+00  Z=-1.267481100687687E+00
 VX= 1.325968354292994E-02 VY= 8.343633714615866E-04 VZ= 9.219956468044500E-03
Comet physical (GM= km^3/s^2; RAD= km):                                        
  GM= n.a.                RAD= n.a.                                           
  M1=  15.7     M2=  18.3     k1=  13.    k2=  5.      PHCOF=  .030           
*******************************************************************************
           JDTDB,            Calendar Date (TDB),                      X,                      Y,                      Z,                     VX,                     VY,                     VZ,                     LT,                     RG,                     RR,
**************************************************************************************************************************************************************************************************************************************************************************
$$SOE
2454673.770000000, A.D. 2008-Jul-26 06:28:48.0000, -2.219540190536059E+00,  6.926480328520040E+00, -1.193168634777949E+00, -5.009942022527141E-03,  5.885028808399375E-03, -2.905819995921880E-03,  4.256919034055368E-02,  7.370626824754988E+00,  7.509461344176922E-03,
2454687.770000000, A.D. 2008-Aug-09 06:28:48.0000, -2.289519438870844E+00,  7.008374901310987E+00, -1.233763923130725E+00, -4.987136504801759E-03,  5.814557664723368E-03, -2.893525031874317E-03,  4.317422717293731E-02,  7.475385704852436E+00,  7.456293891369340E-03,
2454701.770000000, A.D. 2008-Aug-23 06:28:48.0000, -2.359181244374622E+00,  7.089297812413923E+00, -1.274187849512290E+00, -4.964594494163922E-03,  5.746201548552835E-03, -2.881340191633722E-03,  4.377501314577666E-02,  7.579408571435543E+00,  7.404308715906055E-03,
2454715.770000000, A.D. 2008-Sep-06 06:28:48.0000, -2.428529337283197E+00,  7.169277915677786E+00, -1.314441975372658E+00, -4.942320837022882E-03,  5.679853779667325E-03, -2.869268228287876E-03,  4.437164196364773E-02,  7.682711648948694E+00,  7.353459376471526E-03,
2454729.770000000, A.D. 2008-Sep-20 06:28:48.0000, -2.497567489369509E+00,  7.248342628789841E+00, -1.354527896721587E+00, -4.920317495507608E-03,  5.615415591090353E-03, -2.857311278626015E-03,  4.496420368296659E-02,  7.785310530176978E+00,  7.303702124345538E-03,
2454743.770000000, A.D. 2008-Oct-04 06:28:48.0000, -2.566299494445361E+00,  7.326518026660107E+00, -1.394447235439805E+00, -4.898585636531235E-03,  5.552793388947195E-03, -2.845470958034359E-03,  4.555278488553837E-02,  7.887220206295228E+00,  7.254994322366141E-03,
2454757.770000000, A.D. 2008-Oct-18 06:28:48.0000, -2.634729140877378E+00,  7.403828890524943E+00, -1.434201635842379E+00, -4.877121775607350E-03,  5.491895964264999E-03, -2.833749007650675E-03,  4.613746862897622E-02,  7.988455058283373E+00,  7.207291010847145E-03,
2454771.770000000, A.D. 2008-Nov-01 06:28:48.0000, -2.702860097671846E+00,  7.480298805241036E+00, -1.473792766152105E+00, -4.855914803642637E-03,  5.432647024929639E-03, -2.822146608139645E-03,  4.671833451547722E-02,  8.089028868834589E+00,  7.160555563053521E-03,
2454785.770000000, A.D. 2008-Nov-15 06:28:48.0000, -2.770695967402377E+00,  7.555950378760156E+00, -1.513222295564117E+00, -4.834967056145804E-03,  5.374977518923052E-03, -2.810663134329304E-03,  4.729545971563785E-02,  8.188954999623448E+00,  7.114759486135506E-03,
2454799.770000000, A.D. 2008-Nov-29 06:28:48.0000, -2.838240377017847E+00,  7.630805200479818E+00, -1.552491889975613E+00, -4.814276750391484E-03,  5.318813594629571E-03, -2.799298804792464E-03,  4.786891871440573E-02,  8.288246347318852E+00,  7.069866330456689E-03,
2454813.770000000, A.D. 2008-Dec-13 06:28:48.0000, -2.905496890606658E+00,  7.704883872916966E+00, -1.591603218772865E+00, -4.793838081629352E-03,  5.264088459571083E-03, -2.788053751001093E-03,  4.843878313961800E-02,  8.386915313896347E+00,  7.025842641402968E-03,
2454827.770000000, A.D. 2008-Dec-27 06:28:48.0000, -2.972468992520470E+00,  7.778206104941744E+00, -1.630557950723523E+00, -4.773645703168692E-03,  5.210740729056009E-03, -2.776927778338510E-03,  4.900512205257546E-02,  8.484973856949495E+00,  6.982658031761462E-03,
2454841.770000000, A.D. 2009-Jan-10 06:28:48.0000, -3.039160093651033E+00,  7.850790763111904E+00, -1.669357751606097E+00, -4.753693627832046E-03,  5.158710864275476E-03, -2.765920782891337E-03,  4.956800207553276E-02,  8.582433511764103E+00,  6.940281773412070E-03,
2454855.770000000, A.D. 2009-Jan-24 06:28:48.0000, -3.105573469111182E+00,  7.922655915373428E+00, -1.708004289004330E+00, -4.733968386606664E-03,  5.107947623439089E-03, -2.755032861953819E-03,  5.012748735873947E-02,  8.679305385611571E+00,  6.898686399851806E-03,
2454869.770000000, A.D. 2009-Feb-07 06:28:48.0000, -3.171712261565301E+00,  7.993819032774417E+00, -1.746499218183628E+00, -4.714468659810987E-03,  5.058412876612121E-03, -2.744262111414352E-03,  5.068364049832071E-02,  8.775600316674991E+00,  6.857858681360223E-03,
2454883.770000000, A.D. 2009-Feb-21 06:28:48.0000, -3.237579658876878E+00,  8.064296986742177E+00, -1.784844168435852E+00, -4.695197522959433E-03,  5.010059218174130E-03, -2.733607140437008E-03,  5.123652274851800E-02,  8.871328910797510E+00,  6.817777226256670E-03,
2454897.770000000, A.D. 2009-Mar-07 06:28:48.0000, -3.303178853198354E+00,  8.134105991791499E+00, -1.823040753473061E+00, -4.676153795789268E-03,  4.962841553326281E-03, -2.723066879417676E-03,  5.178619354418052E-02,  8.966501458804252E+00,  6.778420069703961E-03,
2454911.770000000, A.D. 2009-Mar-21 06:28:48.0000, -3.368513025894159E+00,  8.203261653619323E+00, -1.861090570246137E+00, -4.657337419716245E-03,  4.916717451019400E-03, -2.712640013656106E-03,  5.233271062580797E-02,  9.061127958152834E+00,  6.739766894789999E-03,
2454925.770000000, A.D. 2009-Apr-04 06:28:48.0000, -3.433585366117021E+00,  8.271778982225898E+00, -1.898995196942356E+00, -4.638749073151363E-03,  4.871643564107418E-03, -2.702325272529566E-03,  5.287613005842366E-02,  9.155218116201121E+00,  6.701795818678989E-03,
2454939.770000000, A.D. 2009-Apr-18 06:28:48.0000, -3.498399034419040E+00,  8.339672369099219E+00, -1.936756198511865E+00, -4.620382303270580E-03,  4.827576911413776E-03, -2.692122022006289E-03,  5.341650596195463E-02,  9.248781303524005E+00,  6.664481811891555E-03,
2454953.770000000, A.D. 2009-May-02 06:28:48.0000, -3.562957087515059E+00,  8.406955704775436E+00, -1.974375124065926E+00, -4.602233889476726E-03,  4.784488459736448E-03, -2.682028196905237E-03,  5.395389088114468E-02,  9.341826617961843E+00,  6.627812385309319E-03,
2454967.770000000, A.D. 2009-May-16 06:28:48.0000, -3.627262631961666E+00,  8.473642434563290E+00, -2.011853488337894E+00, -4.584309836771653E-03,  4.742340530011149E-03, -2.672041605660584E-03,  5.448833631505551E-02,  9.434362976300759E+00,  6.591769905404330E-03,
2454981.770000000, A.D. 2009-May-30 06:28:48.0000, -3.691318802004004E+00,  8.539745442900259E+00, -2.049192783488625E+00, -4.566608405961867E-03,  4.701093422158765E-03, -2.662160966488424E-03,  5.501989202200000E-02,  9.526398993925556E+00,  6.556331482618409E-03,
2454995.770000000, A.D. 2009-Jun-13 06:28:48.0000, -3.755128689088360E+00,  8.605277085008803E+00, -2.086394483646126E+00, -4.549125923653292E-03,  4.660710918951531E-03, -2.652384951105803E-03,  5.554860597856989E-02,  9.617942977725592E+00,  6.521475913575819E-03,
2455009.770000000, A.D. 2009-Jun-27 06:28:48.0000, -3.818695331317242E+00,  8.670249219527996E+00, -2.123460044253414E+00, -4.531858367508496E-03,  4.621157790335056E-03, -2.642712271542587E-03,  5.607452446969011E-02,  9.709002941687197E+00,  6.487182093828639E-03,
2455023.770000000, A.D. 2009-Jul-11 06:28:48.0000, -3.882021685507573E+00,  8.734673203463325E+00, -2.160390906485757E+00, -4.514796409041008E-03,  4.582398211900139E-03, -2.633142291883882E-03,  5.659769195332101E-02,  9.799586583467574E+00,  6.453425821472010E-03,
